{
  "type": "FeatureCollection",
  "generator": "overpass-turbo",
  "copyright": "The data included in this document is from www.openstreetmap.org. The data is made available under ODbL.",
  "timestamp": "2026-08-13T22:17:51Z",
  "features": [
    {
      "type": "Feature",
      "properties": {
        "@id": "way/858590210",
        "addr:city": "Лопатино",
        "addr:country": "RU",
        "addr:housenumber": "30 с1",
        "addr:place": "ЖК Государев дом",
        "addr:postcode": "142710",
        "addr:region": "Московская область",
        "addr:street": "Сухановская улица",
        "building": "yes",
        "source:addr": "ЕГРН"
      },
      "geometry": {
        "type": "Polygon",
        "coordinates": [
          [
            [
              37.6341518,
              55.5295967
            ],
            [
              37.6341639,
              55.5294863
            ],
            [
              37.6343578,
              55.5294931
            ],
            [
              37.6343457,
              55.5296035
            ],
            [
              37.6341518,
              55.5295967
            ]
          ]
        ]
      },
      "id": "way/858590210"
    },
    {
      "type": "Feature",
      "properties": {
        "@id": "way/858590211",
        "addr:city": "Лопатино",
        "addr:country": "RU",
        "addr:place": "ЖК Государев дом",
        "addr:postcode": "142710",
        "addr:region": "Московская область",
        "building": "yes"
      },
      "geometry": {
        "type": "Polygon",
        "coordinates": [
          [
            [
              37.6334852,
              55.5294984
            ],
            [
              37.6334936,
              55.5293921
            ],
            [
              37.6338824,
              55.5294019
            ],
            [
              37.6338739,
              55.5295082
            ],
            [
              37.6334852,
              55.5294984
            ]
          ]
        ]
      },
      "id": "way/858590211"
    },
    {
      "type": "Feature",
      "properties": {
        "@id": "way/858590212",
        "addr:city": "Лопатино",
        "addr:country": "RU",
        "addr:housenumber": "28",
        "addr:place": "ЖК Государев дом",
        "addr:postcode": "142710",
        "addr:region": "Московская область",
        "addr:street": "Сухановская улица",
        "building": "apartments",
        "building:flats": "241",
        "building:levels": "9",
        "building:levels:underground": "1",
        "energy_class": "C",
        "start_date": "2021-10-20"
      },
      "geometry": {
        "type": "Polygon",
        "coordinates": [
          [
            [
              37.6374186,
              55.5304707
            ],
            [
              37.6371762,
              55.5304626
            ],
            [
              37.6371888,
              55.5303414
            ],
            [
              37.6372141,
              55.5300988
            ],
            [
              37.6372393,
              55.5298563
            ],
            [
              37.637252,
              55.529735
            ],
            [
              37.6375274,
              55.5297442
            ],
            [
              37.6375166,
              55.5298478
            ],
            [
              37.6374836,
              55.5298467
            ],
            [
              37.6374186,
              55.5304707
            ]
          ]
        ]
      },
      "id": "way/858590212"
    },
    {
      "type": "Feature",
      "properties": {
        "@id": "way/858590213",
        "addr:city": "Лопатино",
        "addr:country": "RU",
        "addr:housenumber": "22",
        "addr:place": "ЖК Государев дом",
        "addr:postcode": "142710",
        "addr:region": "Московская область",
        "addr:street": "Сухановская улица",
        "building": "apartments",
        "building:flats": "430",
        "building:levels": "9",
        "building:levels:underground": "1",
        "energy_class": "C",
        "start_date": "2021-10-20"
      },
      "geometry": {
        "type": "Polygon",
        "coordinates": [
          [
            [
              37.6362902,
              55.531571
            ],
            [
              37.6363031,
              55.5314477
            ],
            [
              37.6364523,
              55.5314527
            ],
            [
              37.6367506,
              55.5314627
            ],
            [
              37.6370489,
              55.5314727
            ],
            [
              37.6370607,
              55.5313599
            ],
            [
              37.6370844,
              55.5311342
            ],
            [
              37.6371081,
              55.5309086
            ],
            [
              37.6371317,
              55.5306829
            ],
            [
              37.6371436,
              55.5305701
            ],
            [
              37.6374084,
              55.530579
            ],
            [
              37.6373846,
              55.5308065
            ],
            [
              37.637364,
              55.5308058
            ],
            [
              37.6372953,
              55.5314601
            ],
            [
              37.6372092,
              55.5314572
            ],
            [
              37.6371941,
              55.5316014
            ],
            [
              37.6362902,
              55.531571
            ]
          ]
        ]
      },
      "id": "way/858590213"
    },
    {
      "type": "Feature",
      "properties": {
        "@id": "way/858590215",
        "addr:city": "Лопатино",
        "addr:country": "RU",
        "addr:housenumber": "24",
        "addr:place": "ЖК Государев дом",
        "addr:postcode": "142710",
        "addr:region": "Московская область",
        "addr:street": "Сухановская улица",
        "building": "apartments",
        "building:flats": "224",
        "building:levels": "9",
        "building:levels:underground": "1",
        "energy_class": "C",
        "start_date": "2021-10-20"
      },
      "geometry": {
        "type": "Polygon",
        "coordinates": [
          [
            [
              37.6359268,
              55.5314086
            ],
            [
              37.6347552,
              55.5306922
            ],
            [
              37.6349508,
              55.5305897
            ],
            [
              37.6350461,
              55.530648
            ],
            [
              37.6350127,
              55.5306655
            ],
            [
              37.6351024,
              55.5307203
            ],
            [
              37.6352817,
              55.53083
            ],
            [
              37.6354611,
              55.5309397
            ],
            [
              37.6356405,
              55.5310494
            ],
            [
              37.6358199,
              55.5311591
            ],
            [
              37.6359992,
              55.5312688
            ],
            [
              37.6360889,
              55.5313236
            ],
            [
              37.6359268,
              55.5314086
            ]
          ]
        ]
      },
      "id": "way/858590215"
    },
    {
      "type": "Feature",
      "properties": {
        "@id": "way/1059609798",
        "addr:city": "Лопатино",
        "addr:country": "RU",
        "addr:housenumber": "30",
        "addr:place": "ЖК Государев дом",
        "addr:postcode": "142710",
        "addr:region": "Московская область",
        "addr:street": "Сухановская улица",
        "building": "apartments",
        "building:flats": "268",
        "building:levels": "9",
        "building:levels:underground": "1",
        "energy_class": "B",
        "start_date": "2022-09-15"
      },
      "geometry": {
        "type": "Polygon",
        "coordinates": [
          [
            [
              37.6348253,
              55.5296813
            ],
            [
              37.6348288,
              55.5295481
            ],
            [
              37.6362828,
              55.5295605
            ],
            [
              37.6362864,
              55.5294249
            ],
            [
              37.6362629,
              55.5294247
            ],
            [
              37.6362681,
              55.5292305
            ],
            [
              37.6365842,
              55.5292332
            ],
            [
              37.6365756,
              55.5295566
            ],
            [
              37.6364569,
              55.5295556
            ],
            [
              37.6364532,
              55.5296952
            ],
            [
              37.6348253,
              55.5296813
            ]
          ]
        ]
      },
      "id": "way/1059609798"
    },
    {
      "type": "Feature",
      "properties": {
        "@id": "way/1059609801",
        "building": "service",
        "building:levels": "1",
        "power": "substation",
        "substation": "minor_distribution"
      },
      "geometry": {
        "type": "Polygon",
        "coordinates": [
          [
            [
              37.6368532,
              55.5307052
            ],
            [
              37.6368516,
              55.5307616
            ],
            [
              37.6367679,
              55.5307609
            ],
            [
              37.6367695,
              55.5307045
            ],
            [
              37.6368532,
              55.5307052
            ]
          ]
        ]
      },
      "id": "way/1059609801"
    },
    {
      "type": "Feature",
      "properties": {
        "@id": "way/1059609802",
        "building": "service",
        "building:levels": "1",
        "power": "substation",
        "substation": "minor_distribution"
      },
      "geometry": {
        "type": "Polygon",
        "coordinates": [
          [
            [
              37.634886,
              55.5303017
            ],
            [
              37.634942,
              55.5303484
            ],
            [
              37.6348727,
              55.530375
            ],
            [
              37.6348167,
              55.5303283
            ],
            [
              37.634886,
              55.5303017
            ]
          ]
        ]
      },
      "id": "way/1059609802"
    },
    {
      "type": "Feature",
      "properties": {
        "@id": "way/1059609803",
        "addr:city": "Лопатино",
        "addr:country": "RU",
        "addr:housenumber": "26",
        "addr:place": "ЖК Государев дом",
        "addr:postcode": "142710",
        "addr:region": "Московская область",
        "addr:street": "Сухановская улица",
        "building": "apartments",
        "building:flats": "206",
        "building:levels": "9",
        "building:levels:underground": "1",
        "energy_class": "C",
        "start_date": "2021-10-20"
      },
      "geometry": {
        "type": "Polygon",
        "coordinates": [
          [
            [
              37.6343966,
              55.5297972
            ],
            [
              37.6346563,
              55.5297961
            ],
            [
              37.6346574,
              55.5298874
            ],
            [
              37.6346387,
              55.5298875
            ],
            [
              37.6346398,
              55.5299779
            ],
            [
              37.6346421,
              55.5301588
            ],
            [
              37.6346444,
              55.5303396
            ],
            [
              37.6346455,
              55.53043
            ],
            [
              37.6344046,
              55.530431
            ],
            [
              37.6343966,
              55.5297972
            ]
          ]
        ]
      },
      "id": "way/1059609803"
    },
    {
      "type": "Feature",
      "properties": {
        "@id": "way/1059609805",
        "building": "yes"
      },
      "geometry": {
        "type": "Polygon",
        "coordinates": [
          [
            [
              37.6344086,
              55.5316173
            ],
            [
              37.6344215,
              55.5315943
            ],
            [
              37.634449,
              55.5315758
            ],
            [
              37.6344868,
              55.5315647
            ],
            [
              37.6345293,
              55.5315627
            ],
            [
              37.63457,
              55.5315699
            ],
            [
              37.6346026,
              55.5315855
            ],
            [
              37.6346222,
              55.5316069
            ],
            [
              37.6346259,
              55.531631
            ],
            [
              37.634613,
              55.531654
            ],
            [
              37.6345855,
              55.5316724
            ],
            [
              37.6345477,
              55.5316835
            ],
            [
              37.6345052,
              55.5316856
            ],
            [
              37.6344645,
              55.5316783
            ],
            [
              37.6344319,
              55.5316628
            ],
            [
              37.6344123,
              55.5316413
            ],
            [
              37.6344086,
              55.5316173
            ]
          ]
        ]
      },
      "id": "way/1059609805"
    },
    {
      "type": "Feature",
      "properties": {
        "@id": "way/1059609806",
        "building": "yes"
      },
      "geometry": {
        "type": "Polygon",
        "coordinates": [
          [
            [
              37.6342115,
              55.5315118
            ],
            [
              37.6342244,
              55.5314888
            ],
            [
              37.6342518,
              55.5314703
            ],
            [
              37.6342897,
              55.5314592
            ],
            [
              37.6343322,
              55.5314572
            ],
            [
              37.6343728,
              55.5314644
            ],
            [
              37.6344055,
              55.53148
            ],
            [
              37.6344251,
              55.5315014
            ],
            [
              37.6344287,
              55.5315255
            ],
            [
              37.6344158,
              55.5315485
            ],
            [
              37.6343884,
              55.5315669
            ],
            [
              37.6343505,
              55.531578
            ],
            [
              37.634308,
              55.5315801
            ],
            [
              37.6342674,
              55.5315728
            ],
            [
              37.6342348,
              55.5315573
            ],
            [
              37.6342151,
              55.5315358
            ],
            [
              37.6342115,
              55.5315118
            ]
          ]
        ]
      },
      "id": "way/1059609806"
    },
    {
      "type": "Feature",
      "properties": {
        "@id": "way/1059609807",
        "addr:city": "Лопатино",
        "addr:country": "RU",
        "addr:place": "ЖК Государев дом",
        "addr:postcode": "142710",
        "addr:region": "Московская область",
        "building": "yes"
      },
      "geometry": {
        "type": "Polygon",
        "coordinates": [
          [
            [
              37.6342732,
              55.5312325
            ],
            [
              37.6344227,
              55.5312938
            ],
            [
              37.6342323,
              55.5314426
            ],
            [
              37.6340827,
              55.5313813
            ],
            [
              37.6342732,
              55.5312325
            ]
          ]
        ]
      },
      "id": "way/1059609807"
    },
    {
      "type": "Feature",
      "properties": {
        "@id": "way/1411774538",
        "addr:housenumber": "28 к1",
        "addr:street": "Сухановская улица",
        "building": "kindergarten"
      },
      "geometry": {
        "type": "Polygon",
        "coordinates": [
          [
            [
              37.6354143,
              55.5306127
            ],
            [
              37.6353972,
              55.5301204
            ],
            [
              37.6358461,
              55.5301154
            ],
            [
              37.6358497,
              55.5302187
            ],
            [
              37.6357045,
              55.5302203
            ],
            [
              37.6357141,
              55.530501
            ],
            [
              37.635862,
              55.5304994
            ],
            [
              37.6358658,
              55.5306077
            ],
            [
              37.6354143,
              55.5306127
            ]
          ]
        ]
      },
      "id": "way/1411774538"
    }
  ]
}